[
    {
        "Altitude(m)": 707139.8229764851,
        "Argument of Periapsis(deg)": 0.0011390121186627068,
        "Eccentricity": 0.0,
        "Inclination(deg)": 45.0,
        "Latitude(deg)": 44.39869020482265,
        "Longitude(deg)": 33.05294349958986,
        "Mean Anomaly(deg)": 99.33512166474809,
        "RAAN(deg)": 29.998924805854173,
        "Satellite Name": "Constellation 1 138",
        "Satellite Number": 138,
        "Semi-Major Axis(m)": 7083131.272910544,
        "Time(s)": 19
    },
    {
        "Altitude(m)": 707137.6256404888,
        "Argument of Periapsis(deg)": 0.0011989601249081123,
        "Eccentricity": 0.0,
        "Inclination(deg)": 45.0,
        "Latitude(deg)": 44.388908186077494,
        "Longitude(deg)": 33.132504728779374,
        "Mean Anomaly(deg)": 99.39582280499798,
        "RAAN(deg)": 29.99886821668861,
        "Satellite Name": "Constellation 1 138",
        "Satellite Number": 138,
        "Semi-Major Axis(m)": 7083131.272910544,
        "Time(s)": 20
    },
    {
        "Altitude(m)": 707135.4146776202,
        "Argument of Periapsis(deg)": 0.001258908131153518,
        "Eccentricity": 0.0,
        "Inclination(deg)": 45.0,
        "Latitude(deg)": 44.37906490715361,
        "Longitude(deg)": 33.21203802395411,
        "Mean Anomaly(deg)": 99.45652394524788,
        "RAAN(deg)": 29.998811627523036,
        "Satellite Name": "Constellation 1 138",
        "Satellite Number": 138,
        "Semi-Major Axis(m)": 7083131.272910544,
        "Time(s)": 21
    },
    {
        "Altitude(m)": 707133.1901008916,
        "Argument of Periapsis(deg)": 0.0013188561373989236,
        "Eccentricity": 0.0,
        "Inclination(deg)": 45.0,
        "Latitude(deg)": 44.369160409216114,
        "Longitude(deg)": 33.29154306178715,
        "Mean Anomaly(deg)": 99.51722508549778,
        "RAAN(deg)": 29.998755038357473,
        "Satellite Name": "Constellation 1 138",
        "Satellite Number": 138,
        "Semi-Major Axis(m)": 7083131.272910544,
        "Time(s)": 22
    },
    {
        "Altitude(m)": 707130.9519234033,
        "Argument of Periapsis(deg)": 0.0013788041436443293,
        "Eccentricity": 0.0,
        "Inclination(deg)": 45.0,
        "Latitude(deg)": 44.35919473365182,
        "Longitude(deg)": 33.37102002370078,
        "Mean Anomaly(deg)": 99.57792622574767,
        "RAAN(deg)": 29.9986984491919,
        "Satellite Name": "Constellation 1 138",
        "Satellite Number": 138,
        "Semi-Major Axis(m)": 7083131.272910544,
        "Time(s)": 23
    },
    {
        "Altitude(m)": 707128.70015834,
        "Argument of Periapsis(deg)": 0.001438752149889735,
        "Eccentricity": 0.0,
        "Inclination(deg)": 45.0,
        "Latitude(deg)": 44.34916792207654,
        "Longitude(deg)": 33.45046858720597,
        "Mean Anomaly(deg)": 99.63862736599758,
        "RAAN(deg)": 29.99864186002633,
        "Satellite Name": "Constellation 1 138",
        "Satellite Number": 138,
        "Semi-Major Axis(m)": 7083131.272910544,
        "Time(s)": 24
    },
    {
        "Altitude(m)": 707126.4348189497,
        "Argument of Periapsis(deg)": 0.0014987001561351404,
        "Eccentricity": 0.0,
        "Inclination(deg)": 45.0,
        "Latitude(deg)": 44.33908001629741,
        "Longitude(deg)": 33.52988859860769,
        "Mean Anomaly(deg)": 99.69932850624745,
        "RAAN(deg)": 29.998585270860755,
        "Satellite Name": "Constellation 1 138",
        "Satellite Number": 138,
        "Semi-Major Axis(m)": 7083131.272910544,
        "Time(s)": 25
    },
    {
        "Altitude(m)": 707124.1559185847,
        "Argument of Periapsis(deg)": 0.001558648162380546,
        "Eccentricity": 0.0,
        "Inclination(deg)": 45.0,
        "Latitude(deg)": 44.32893105836822,
        "Longitude(deg)": 33.60927990444018,
        "Mean Anomaly(deg)": 99.76002964649737,
        "RAAN(deg)": 29.99852868169519,
        "Satellite Name": "Constellation 1 138",
        "Satellite Number": 138,
        "Semi-Major Axis(m)": 7083131.272910544,
        "Time(s)": 26
    },
    {
        "Altitude(m)": 707121.863470662,
        "Argument of Periapsis(deg)": 0.0016185961686259519,
        "Eccentricity": 0.0,
        "Inclination(deg)": 45.0,
        "Latitude(deg)": 44.31872109055139,
        "Longitude(deg)": 33.688642351779734,
        "Mean Anomaly(deg)": 99.82073078674728,
        "RAAN(deg)": 29.998472092529617,
        "Satellite Name": "Constellation 1 138",
        "Satellite Number": 138,
        "Semi-Major Axis(m)": 7083131.272910544,
        "Time(s)": 27
    },
    {
        "Altitude(m)": 707119.5574886884,
        "Argument of Periapsis(deg)": 0.0016785441748713573,
        "Eccentricity": 0.0,
        "Inclination(deg)": 45.0,
        "Latitude(deg)": 44.308450155326305,
        "Longitude(deg)": 33.76797578816993,
        "Mean Anomaly(deg)": 99.88143192699717,
        "RAAN(deg)": 29.99841550336405,
        "Satellite Name": "Constellation 1 138",
        "Satellite Number": 138,
        "Semi-Major Axis(m)": 7083131.272910544,
        "Time(s)": 28
    },
    {
        "Altitude(m)": 707117.237986237,
        "Argument of Periapsis(deg)": 0.001738492181116763,
        "Eccentricity": 0.0,
        "Inclination(deg)": 45.0,
        "Latitude(deg)": 44.298118295388555,
        "Longitude(deg)": 33.847280061622996,
        "Mean Anomaly(deg)": 99.94213306724708,
        "RAAN(deg)": 29.998358914198477,
        "Satellite Name": "Constellation 1 138",
        "Satellite Number": 138,
        "Semi-Major Axis(m)": 7083131.272910544,
        "Time(s)": 29
    },
    {
        "Altitude(m)": 707114.9049769768,
        "Argument of Periapsis(deg)": 0.0017984401873621684,
        "Eccentricity": 0.0,
        "Inclination(deg)": 45.0,
        "Latitude(deg)": 44.287725553648976,
        "Longitude(deg)": 33.92655485252423,
        "Mean Anomaly(deg)": 100.00283420749697,
        "RAAN(deg)": 29.998302325032913,
        "Satellite Name": "Constellation 1 138",
        "Satellite Number": 138,
        "Semi-Major Axis(m)": 7083131.272910544,
        "Time(s)": 30
    },
    {
        "Altitude(m)": 707112.55847465,
        "Argument of Periapsis(deg)": 0.0018583881936075745,
        "Eccentricity": 0.0,
        "Inclination(deg)": 45.0,
        "Latitude(deg)": 44.277271973233795,
        "Longitude(deg)": 34.00580034602309,
        "Mean Anomaly(deg)": 100.06353534774686,
        "RAAN(deg)": 29.99824573586734,
        "Satellite Name": "Constellation 1 138",
        "Satellite Number": 138,
        "Semi-Major Axis(m)": 7083131.272910544,
        "Time(s)": 31
    },
    {
        "Altitude(m)": 707110.1984930823,
        "Argument of Periapsis(deg)": 0.0019183361998529795,
        "Eccentricity": 0.0,
        "Inclination(deg)": 45.0,
        "Latitude(deg)": 44.26675759748213,
        "Longitude(deg)": 34.08501622345139,
        "Mean Anomaly(deg)": 100.12423648799677,
        "RAAN(deg)": 29.998189146701776,
        "Satellite Name": "Constellation 1 138",
        "Satellite Number": 138,
        "Semi-Major Axis(m)": 7083131.272910544,
        "Time(s)": 32
    },
    {
        "Altitude(m)": 707107.8250461718,
        "Argument of Periapsis(deg)": 0.0019782842060983856,
        "Eccentricity": 0.0,
        "Inclination(deg)": 45.0,
        "Latitude(deg)": 44.25618246994656,
        "Longitude(deg)": 34.16420233471414,
        "Mean Anomaly(deg)": 100.18493762824666,
        "RAAN(deg)": 29.998132557536202,
        "Satellite Name": "Constellation 1 138",
        "Satellite Number": 138,
        "Semi-Major Axis(m)": 7083131.272910544,
        "Time(s)": 33
    },
    {
        "Altitude(m)": 707105.4381479019,
        "Argument of Periapsis(deg)": 0.0020382322123437906,
        "Eccentricity": 0.0,
        "Inclination(deg)": 45.0,
        "Latitude(deg)": 44.245546634391665,
        "Longitude(deg)": 34.24335853019403,
        "Mean Anomaly(deg)": 100.24563876849655,
        "RAAN(deg)": 29.998075968370635,
        "Satellite Name": "Constellation 1 138",
        "Satellite Number": 138,
        "Semi-Major Axis(m)": 7083131.272910544,
        "Time(s)": 34
    },
    {
        "Altitude(m)": 707103.037812342,
        "Argument of Periapsis(deg)": 0.002098180218589197,
        "Eccentricity": 0.0,
        "Inclination(deg)": 45.0,
        "Latitude(deg)": 44.23485013479354,
        "Longitude(deg)": 34.32248466075274,
        "Mean Anomaly(deg)": 100.30633990874647,
        "RAAN(deg)": 29.99801937920506,
        "Satellite Name": "Constellation 1 138",
        "Satellite Number": 138,
        "Semi-Major Axis(m)": 7083131.272910544,
        "Time(s)": 35
    },
    {
        "Altitude(m)": 707100.6240536298,
        "Argument of Periapsis(deg)": 0.002158128224834602,
        "Eccentricity": 0.0,
        "Inclination(deg)": 45.0,
        "Latitude(deg)": 44.224093015338724,
        "Longitude(deg)": 34.4015805777334,
        "Mean Anomaly(deg)": 100.36704104899637,
        "RAAN(deg)": 29.997962790039498,
        "Satellite Name": "Constellation 1 138",
        "Satellite Number": 138,
        "Semi-Major Axis(m)": 7083131.272910544,
        "Time(s)": 36
    },
    {
        "Altitude(m)": 707098.1968859907,
        "Argument of Periapsis(deg)": 0.002218076231080008,
        "Eccentricity": 0.0,
        "Inclination(deg)": 45.0,
        "Latitude(deg)": 44.21327532042328,
        "Longitude(deg)": 34.4806459648646,
        "Mean Anomaly(deg)": 100.42774218924629,
        "RAAN(deg)": 29.997906200873924,
        "Satellite Name": "Constellation 1 138",
        "Satellite Number": 138,
        "Semi-Major Axis(m)": 7083131.272910544,
        "Time(s)": 37
    }
]